C/2016 R3 (Borisov),e,53.0483,78.6855,118.0493,197.2695,0.0003557,0.99773260,0.0000,10/10.9846/2016,2000,g 18.0,4.0
# From MPC102955
P/2016 R4 (Gibbs),e,10.8620,168.3464,174.0436,5.334865,0.0799869,0.47507078,18.9215,03/14.0/2017,2000,g 12.5,4.0
# From MPC103847
P/2016 S1 (PANSTARRS),e,94.6905,227.5401,273.6118,8.282980,0.0413451,0.70880795,359.8836,03/14.0/2017,2000,g 12.0,4.0
# From MPC102100
C/2016 T1 (Matheny),e,129.8204,56.2282,137.4906,116.5849,0.0007830,0.98029268,0.0000,02/01.9911/2017,2000,g 13.0,4.0
# From MPC103847
C/2016 T2 (Matheny),e,81.3113,339.0992,92.2847,101.7999,0.0009596,0.98125887,0.0000,12/29.1051/2016,2000,g 14.5,4.0
# From MPC103847
C/2016 T3 (PANSTARRS),e,22.6745,271.7508,194.6723,143.0858,0.0005758,0.98148275,0.0000,09/06.9688/2017,2000,g 10.5,4.0
# From MPC103847
C/2016 U1 (NEOWISE),h,01/14.0167/2017,46.4350,61.4279,162.7492,1.000263,0.319171,2000,17.0,4.0
# From MPC103847
C/2016 VZ18 (PANSTARRS),e,24.0354,98.9548,36.3867,195.5894,0.0003603,0.99534604,0.0000,03/07.3802/2017,2000,g 19.5,4.0
# From MPC103847
C/2016 X1 (Lemmon),h,04/30.5564/2019,26.4373,256.4233,224.8409,1.005209,7.540319,2000,6.0,4.0
# From MPC103847
C/2017 A1 (PANSTARRS),e,49.7928,121.0685,2.0450,80.11140,0.0013746,0.97141068,0.0000,05/17.1279/2017,2000,g 13.0,4.0
# From MPC103847
C/2017 A3 (Elenin),e,98.5075,97.9061,304.1141,43.14621,0.0034777,0.91066717,0.1473,03/14.0/2017,2000,g  9.5,4.0
# From MPC103847
C/2017 B3 (LINEAR),h,02/02.4295/2019,54.2151,2.2182,284.5593,1.001105,3.930218,2000,6.0,4.0
# From MPC103847
P/2017 B4 (PANSTARRS),e,20.0584,121.4578,11.0197,4.410520,0.1064068,0.36495152,359.9130,01/05.0/2017,2000,g 14.5,4.0
# From MPC103848
C/2017 C1 (NEOWISE),e,65.7063,357.4855,110.1305,19.96060,0.0110521,0.92482251,0.5986,03/14.0/2017,2000,g 18.0,4.0
# From MPC103848
C/2017 C2 (PANSTARRS),e,118.5829,249.8056,138.7424,121.5067,0.0007359,0.97998521,0.0000,01/21.5489/2017,2000,g 14.0,4.0
# From MPC103848
P/2017 D1 (Fuls),e,20.7317,82.3318,7.2906,4.803417,0.0936221,0.44038034,24.2108,03/14.0/2017,2000,g 14.0,4.0
# From MPC103848
C/2017 D2 (Barros),e,31.2769,330.9792,334.3300,290.0032,0.0001996,0.99142926,0.0000,07/14.5119/2017,2000,g 11.0,4.0
# From MPC103848
C/2017 D3 (ATLAS),e,125.5216,186.6696,339.8743,275.3009,0.0002158,0.98195062,0.0000,04/19.4714/2017,2000,g  8.0,4.0
# From MPC103848
P/2017 D4 (PANSTARRS),e,10.3392,266.1022,209.7745,7.429048,0.0486748,0.62929437,9.1702,03/14.0/2017,2000,g 13.0,4.0
# From MPC103848
C/2017 E1 (Borisov),p,04/10.1864/2017,14.5531,152.5602,0.899903,142.7035,2000,14.0,4.0
# From MPC103848
C/2017 E2 (XuYi),p,07/18.1777/2016,58.5701,72.8357,1.524748,14.9307,2000,12.5,4.0
# From MPEC 2017-E85
C/2017 E3 (PANSTARRS),p,09/05.4237/2016,68.2761,306.4315,5.690650,222.3413,2000,7.0,4.0
# From MPEC 2017-E86
C/2017 E4 (Lovejoy),p,04/23.2918/2017,88.2309,87.2154,0.493573,223.1687,2000,17.0,4.0
# From AJ 98, 1083
1P/Halley,e,162.3177,58.1652,111.0581,17.85509,0.0130635,0.96743860,148.6939,03/14.0/2017,2000,g  5.5,3.2
# From MPC103848
2P/Encke,e,11.7782,334.5596,186.5636,2.214766,0.2990284,0.84833808,1.1685,03/14.0/2017,2000,g 11.5,6.0
# From MPC 92275
4P/Faye,e,9.2165,199.0628,204.4608,3.809391,0.1325625,0.57715514,134.6040,03/14.0/2017,2000,g  8.0,6.0
# From MPC 95735
6P/d'Arrest,e,19.4842,138.9264,178.0791,3.501489,0.1504267,0.61138838,111.7192,03/14.0/2017,2000,g  7.5,16.0
# From MPC 92984
7P/Pons-Winnecke,e,22.3443,93.3899,172.4961,3.418219,0.1559567,0.63790968,120.6023,03/14.0/2017,2000,g 10.0,6.0
# From MPC 75715
8P/Tuttle,e,54.9647,270.2684,207.5366,5.691002,0.0725974,0.82017186,241.7943,03/14.0/2017,2000,g  8.0,8.0
# From MPC 84319
9P/Tempel,e,10.4739,68.7468,179.2180,3.145734,0.1766530,0.50962794,39.4641,03/14.0/2017,2000,g  5.5,10.0
# From MPC 92984
10P/Tempel,e,12.0301,117.7973,195.5191,3.063380,0.1838243,0.53742168,89.2956,03/14.0/2017,2000,g  5.0,10.0
# From MPC 89730
11P/Tempel-Swift-LINEAR,e,13.7153,239.7909,164.4057,3.402376,0.1570473,0.55006456,145.7374,03/14.0/2017,2000,g 17.0,4.0
# From QJ 27, 604
12P/Pons-Brooks,e,74.1654,255.7790,199.1726,16.95955,0.0141118,0.95434268,323.3546,03/14.0/2017,2000,g  5.0,6.0
# From QJ 27, 604
13P/Olbers,e,44.6330,85.9872,64.6237,16.64454,0.0145143,0.93044799,321.3331,03/14.0/2017,2000,g  5.0,6.0
# From MPC 10028
14P/Wolf,e,27.9032,202.1160,159.0477,4.257579,0.1121915,0.35575480,330.4820,03/14.0/2017,2000,g  5.5,12.0
# From MPC 91617
15P/Finlay,e,6.8053,13.6962,347.9250,3.501113,0.1504509,0.71778259,121.7438,03/14.0/2017,2000,g 12.0,4.0
# From MPC 92276
16P/Brooks,e,3.4448,151.0340,233.0933,3.506155,0.1501265,0.54689115,147.6376,03/14.0/2017,2000,g  7.5,10.0
# From MPC 83523
17P/Holmes,e,19.0578,326.7684,24.7483,3.627414,0.1426620,0.42957895,154.6487,03/14.0/2017,2000,g 10.0,6.0
# From MPC 92984
19P/Borrelly,e,30.4107,75.2597,353.4769,3.599075,0.1443503,0.62588575,94.5538,03/14.0/2017,2000,g  4.5,10.0
# From MPC 94674
21P/Giacobini-Zinner,e,32.0194,195.4252,172.6332,3.507764,0.1500233,0.70968131,278.1587,03/14.0/2017,2000,g  9.0,6.0
# From MPC 94283
22P/Kopff,e,4.7372,120.8624,162.8881,3.445558,0.1541043,0.54795002,77.9564,03/14.0/2017,2000,g  3.0,10.4
# From MPC 14747
23P/Brorsen-Metcalf,e,19.3797,311.4422,129.7707,16.96478,0.0141053,0.97125689,0.0000,09/15.7319/1989,2000,g  7.8,3.2
# From MPC 56804
24P/Schaumasse,e,11.7340,79.6326,58.0505,4.084659,0.1193907,0.70467190,330.4120,03/14.0/2017,2000,g  6.5,14.0
# From MPC 94674
26P/Grigg-Skjellerup,e,22.4494,211.5345,2.1654,3.015611,0.1882093,0.64087924,253.3231,03/14.0/2017,2000,g 12.0,16.0
# From MPC 78188
27P/Crommelin,e,29.1702,250.5798,196.0409,9.211202,0.0352557,0.91844158,72.3597,03/14.0/2017,2000,g 12.0,8.0
# From MPC 75715
28P/Neujmin,e,14.3143,346.3484,347.5230,6.945710,0.0538430,0.77274282,281.3519,03/14.0/2017,2000,g  8.5,6.0
# From MPC102100
29P/Schwassmann-Wachmann,e,9.3751,312.4112,48.5480,6.017276,0.0667735,0.04179431,310.9344,03/14.0/2017,2000,g  4.0,4.0
# From MPC102956
30P/Reinmuth,e,8.1286,119.7053,13.2809,3.769367,0.1346795,0.50211345,338.7003,03/14.0/2017,2000,g  9.5,6.0
# From MPC102100
31P/Schwassmann-Wachmann,e,4.5460,114.1307,18.3177,4.247170,0.1126042,0.19372931,264.9895,03/14.0/2017,2000,g  5.0,8.0
# From MPC 92276
32P/Comas Sola,e,9.9700,57.8203,53.2773,4.503614,0.1031246,0.55570163,90.6303,03/14.0/2017,2000,g  6.5,8.0
# From MPC 84320
33P/Daniel,e,22.3941,66.4889,19.0899,4.023532,0.1221217,0.46306417,24.8506,03/14.0/2017,2000,g 10.0,12.0
# From QJ 15, 452
35P/Herschel-Rigollet,e,63.4204,355.5579,29.4559,28.56976,0.0064542,0.97316904,0.0000,02/26.9304/2092,2000,g  8.5,4.0
# From MPC 75716
36P/Whipple,e,9.9553,181.9684,200.0670,4.142240,0.1169099,0.26615724,222.7032,03/14.0/2017,2000,g  8.5,6.0
# From MPC 94674
37P/Forbes,e,8.9624,314.6423,330.0012,3.455832,0.1534176,0.53448481,296.1583,03/14.0/2017,2000,g 10.5,4.8
# From QJ 27, 605
38P/Stephan-Oterma,e,18.3553,78.0162,359.6107,11.27442,0.0260353,0.85920565,344.1970,03/14.0/2017,2000,g  3.5,12.0
# From MPC 75716
39P/Oterma,e,1.5475,299.4942,94.1477,7.420472,0.0487592,0.22308653,250.5663,03/14.0/2017,2000,g  5.0,6.0
# From MPC 10028
40P/Vaisala,e,11.4890,133.8404,47.3481,4.944220,0.0896515,0.63161321,76.1221,03/14.0/2017,2000,g  5.5,12.0
# From MPC103848
41P/Tuttle-Giacobini-Kresak,e,9.2293,141.0720,62.1525,3.084006,0.1819831,0.66114386,354.5856,03/14.0/2017,2000,g 10.0,16.0
# From MPC 94283
42P/Neujmin,e,3.9845,150.2754,147.0812,4.874775,0.0915740,0.58434275,64.6284,03/14.0/2017,2000,g 13.0,6.0
# From MPC102956
43P/Wolf-Harrington,e,15.9657,249.8225,191.6252,3.350507,0.1607083,0.59466092,33.1506,03/14.0/2017,2000,g  8.0,6.0
# From MPC 89313
44P/Reinmuth,e,5.8963,286.4591,58.2280,3.691594,0.1389579,0.42617596,100.2056,03/14.0/2017,2000,g  8.3,6.0
# From MPC103849
45P/Honda-Mrkos-Pajdusakova,e,4.2474,88.9657,326.2949,3.023541,0.1874694,0.82387389,13.6362,03/14.0/2017,2000,g 13.5,8.0
# From MPC 88330
46P/Wirtanen,e,11.7472,82.1715,356.3494,3.089344,0.1815118,0.65851327,244.0111,03/14.0/2017,2000,g  9.0,6.0
# From NK 2718
47P/Ashbrook-Jackson,e,13.0308,356.9740,357.6778,4.125999,0.1176008,0.31696490,349.6265,03/14.0/2017,2000,g  1.0,11.2
# From MPC 94675
48P/Johnson,e,12.1975,110.2952,216.2003,3.505566,0.1501644,0.42770521,282.5853,03/14.0/2017,2000,g 10.0,6.0
# From MPC 94675
49P/Arend-Rigaux,e,19.0466,118.8339,332.9089,3.568287,0.1462225,0.59954660,288.5714,03/14.0/2017,2000,g 11.3,4.4
# From MPC 95735
50P/Arend,e,19.1374,355.1785,49.2669,4.085503,0.1193537,0.53010699,47.7131,03/14.0/2017,2000,g  9.5,6.0
# From NK 3014
51P-A/Harrington,e,5.4245,83.6902,269.2652,3.712719,0.1377736,0.54218984,79.8319,03/14.0/2017,2000,g 10.0,8.0
# From NK 3013
51P-D/Harrington,e,5.4252,83.6750,269.3039,3.711703,0.1378302,0.54212597,80.0141,03/14.0/2017,2000,g 16.0,8.0
# From MPC 88330
52P/Harrington-Abell,e,10.2322,336.8314,139.6725,3.859710,0.1299787,0.53985359,143.3457,03/14.0/2017,2000,g 13.5,6.0
# From MPC 10028
53P/Van Biesbroeck,e,6.6081,148.9223,134.2032,5.415719,0.0782024,0.55184838,24.8706,03/14.0/2017,2000,g  7.7,4.8
# From NK 2713
54P/de Vico-Swift-NEAT,e,6.0572,358.8535,1.8571,3.796701,0.1332277,0.42456021,355.6778,03/14.0/2017,2000,g 10.0,6.0
# From MPC 31070
55P/Tempel-Tuttle,e,162.3491,235.4029,172.6179,10.33723,0.0296550,0.90676364,206.1087,03/14.0/2017,2000,g 10.0,10.0
# From MPC101100
56P/Slaughter-Burnham,e,8.1477,345.9826,44.2096,5.082884,0.0860080,0.50646764,20.5224,03/14.0/2017,2000,g  8.5,6.0
# From MPC 98565
57P/du Toit-Neujmin-Delporte,e,2.8486,188.8095,115.1560,3.451079,0.1537346,0.49943531,101.7319,03/14.0/2017,2000,g 12.5,6.0
# From MPC 65938
58P/Jackson-Neujmin,e,13.3616,160.1946,200.0693,4.053801,0.1207565,0.66719923,218.9056,03/14.0/2017,2000,g 15.5,6.0
# From MPC 94675
59P/Kearns-Kwee,e,9.3415,312.8441,127.7402,4.493907,0.1034589,0.47535366,302.9049,03/14.0/2017,2000,g  7.0,6.0
# From MPC 94675
60P/Tsuchinshan,e,3.6064,267.6122,216.5501,3.510367,0.1498564,0.53807529,264.5226,03/14.0/2017,2000,g 11.5,6.0
# From MPC 95213
